{
  "type": "FeatureCollection",
  "features": [
    {
      "type": "Feature",
      "properties": {
        "norad_id": 34874,
        "name": "COSMOS 2251 DEB",
        "group": "cosmos-2251-debris",
        "lat": -42.969473041244534,
        "lon": -85.04365748087137,
        "alt_km": 794.7815020200269,
        "timestamp": "2025-12-09T14:52:26.557825+00:00",
        "meta_object_name": "COSMOS 2251 DEB",
        "meta_object_id": "1993-036ACM",
        "meta_epoch": "2025-12-08T12:49:57.989280",
        "meta_mean_motion": 14.36277608,
        "meta_eccentricity": 0.00511791,
        "meta_inclination": 74.0397,
        "meta_ra_of_asc_node": 81.487,
        "meta_arg_of_pericenter": 108.123,
        "meta_mean_anomaly": 268.2931,
        "meta_ephemeris_type": 0,
        "meta_classification_type": "U",
        "meta_norad_cat_id": 34874,
        "meta_element_set_no": 999,
        "meta_rev_at_epoch": 86984,
        "meta_bstar": 0.0015220199,
        "meta_mean_motion_dot": 4.491e-05,
        "meta_mean_motion_ddot": 0,
        "tle_line1": "1 34874U 93036ACM 25342.53469895  .00004491  00000+0  15220-2 0  9991",
        "tle_line2": "2 34874  74.0397  81.4870 0051179 108.1230 268.2931 14.36277608869844"
      },
      "geometry": {
        "type": "Point",
        "coordinates": [
          -85.04365748087137,
          -42.969473041244534
        ]
      }
    },
    {
      "type": "Feature",
      "properties": {
        "norad_id": 34875,
        "name": "COSMOS 2251 DEB",
        "group": "cosmos-2251-debris",
        "lat": 42.18951115643576,
        "lon": -30.969988621713735,
        "alt_km": 735.5299700462492,
        "timestamp": "2025-12-09T14:52:26.557835+00:00",
        "meta_object_name": "COSMOS 2251 DEB",
        "meta_object_id": "1993-036ACN",
        "meta_epoch": "2025-12-08T22:15:07.367904",
        "meta_mean_motion": 14.48903769,
        "meta_eccentricity": 0.0016077,
        "meta_inclination": 74.0434,
        "meta_ra_of_asc_node": 165.3578,
        "meta_arg_of_pericenter": 289.2326,
        "meta_mean_anomaly": 195.3832,
        "meta_ephemeris_type": 0,
        "meta_classification_type": "U",
        "meta_norad_cat_id": 34875,
        "meta_element_set_no": 999,
        "meta_rev_at_epoch": 87700,
        "meta_bstar": 0.00057345,
        "meta_mean_motion_dot": 2.147e-05,
        "meta_mean_motion_ddot": 0,
        "tle_line1": "1 34875U 93036ACN 25342.92716861  .00002147  00000+0  57345-3 0  9994",
        "tle_line2": "2 34875  74.0434 165.3578 0016077 289.2326 195.3832 14.48903769877003"
      },
      "geometry": {
        "type": "Point",
        "coordinates": [
          -30.969988621713735,
          42.18951115643576
        ]
      }
    },
    {
      "type": "Feature",
      "properties": {
        "norad_id": 34878,
        "name": "COSMOS 2251 DEB",
        "group": "cosmos-2251-debris",
        "lat": -3.6120893995387995,
        "lon": 51.23285906565482,
        "alt_km": 842.036407362044,
        "timestamp": "2025-12-09T14:52:26.557845+00:00",
        "meta_object_name": "COSMOS 2251 DEB",
        "meta_object_id": "1993-036ACR",
        "meta_epoch": "2025-12-08T23:39:26.037792",
        "meta_mean_motion": 13.44184133,
        "meta_eccentricity": 0.0435318,
        "meta_inclination": 73.9652,
        "meta_ra_of_asc_node": 53.2785,
        "meta_arg_of_pericenter": 37.5455,
        "meta_mean_anomaly": 134.9376,
        "meta_ephemeris_type": 0,
        "meta_classification_type": "U",
        "meta_norad_cat_id": 34878,
        "meta_element_set_no": 999,
        "meta_rev_at_epoch": 81222,
        "meta_bstar": 0.00073752,
        "meta_mean_motion_dot": 7.37e-06,
        "meta_mean_motion_ddot": 0,
        "tle_line1": "1 34878U 93036ACR 25342.98571803  .00000737  00000+0  73752-3 0  9991",
        "tle_line2": "2 34878  73.9652  53.2785 0435318  37.5455 134.9376 13.44184133812227"
      },
      "geometry": {
        "type": "Point",
        "coordinates": [
          51.23285906565482,
          -3.6120893995387995
        ]
      }
    },
    {
      "type": "Feature",
      "properties": {
        "norad_id": 34882,
        "name": "COSMOS 2251 DEB",
        "group": "cosmos-2251-debris",
        "lat": -59.94835951758239,
        "lon": -158.07572522836116,
        "alt_km": 668.2994793212029,
        "timestamp": "2025-12-09T14:52:26.557856+00:00",
        "meta_object_name": "COSMOS 2251 DEB",
        "meta_object_id": "1993-036ACV",
        "meta_epoch": "2025-12-08T16:09:55.171872",
        "meta_mean_motion": 14.61586274,
        "meta_eccentricity": 0.00826694,
        "meta_inclination": 74.0467,
        "meta_ra_of_asc_node": 233.3647,
        "meta_arg_of_pericenter": 1.3201,
        "meta_mean_anomaly": 358.8167,
        "meta_ephemeris_type": 0,
        "meta_classification_type": "U",
        "meta_norad_cat_id": 34882,
        "meta_element_set_no": 999,
        "meta_rev_at_epoch": 88465,
        "meta_bstar": 0.0003624177,
        "meta_mean_motion_dot": 1.858e-05,
        "meta_mean_motion_ddot": 0,
        "tle_line1": "1 34882U 93036ACV 25342.67355523  .00001858  00000+0  36242-3 0  9999",
        "tle_line2": "2 34882  74.0467 233.3647 0082669   1.3201 358.8167 14.61586274884654"
      },
      "geometry": {
        "type": "Point",
        "coordinates": [
          -158.07572522836116,
          -59.94835951758239
        ]
      }
    },
    {
      "type": "Feature",
      "properties": {
        "norad_id": 34883,
        "name": "COSMOS 2251 DEB",
        "group": "cosmos-2251-debris",
        "lat": 72.3196701174479,
        "lon": -174.12649615746716,
        "alt_km": 775.9379910944217,
        "timestamp": "2025-12-09T14:52:26.557866+00:00",
        "meta_object_name": "COSMOS 2251 DEB",
        "meta_object_id": "1993-036ACW",
        "meta_epoch": "2025-12-08T05:19:45.369696",
        "meta_mean_motion": 14.51243218,
        "meta_eccentricity": 0.00954596,
        "meta_inclination": 74.1998,
        "meta_ra_of_asc_node": 71.1386,
        "meta_arg_of_pericenter": 257.1998,
        "meta_mean_anomaly": 101.8484,
        "meta_ephemeris_type": 0,
        "meta_classification_type": "U",
        "meta_norad_cat_id": 34883,
        "meta_element_set_no": 999,
        "meta_rev_at_epoch": 86374,
        "meta_bstar": 0.0057169955,
        "meta_mean_motion_dot": 0.00024168,
        "meta_mean_motion_ddot": 0,
        "tle_line1": "1 34883U 93036ACW 25342.22205289  .00024168  00000+0  57170-2 0  9995",
        "tle_line2": "2 34883  74.1998  71.1386 0095459 257.1998 101.8484 14.51243218863740"
      },
      "geometry": {
        "type": "Point",
        "coordinates": [
          -174.12649615746716,
          72.3196701174479
        ]
      }
    },
    {
      "type": "Feature",
      "properties": {
        "norad_id": 34884,
        "name": "COSMOS 2251 DEB",
        "group": "cosmos-2251-debris",
        "lat": -38.45342439633213,
        "lon": 49.83624831084491,
        "alt_km": 605.9335431485879,
        "timestamp": "2025-12-09T14:52:26.557877+00:00",
        "meta_object_name": "COSMOS 2251 DEB",
        "meta_object_id": "1993-036ACX",
        "meta_epoch": "2025-12-09T07:16:36.278688",
        "meta_mean_motion": 14.89793785,
        "meta_eccentricity": 0.00023836,
        "meta_inclination": 74.017,
        "meta_ra_of_asc_node": 63.6261,
        "meta_arg_of_pericenter": 102.4899,
        "meta_mean_anomaly": 320.2561,
        "meta_ephemeris_type": 0,
        "meta_classification_type": "U",
        "meta_norad_cat_id": 34884,
        "meta_element_set_no": 999,
        "meta_rev_at_epoch": 87754,
        "meta_bstar": 0.0034297802,
        "meta_mean_motion_dot": 0.00033038,
        "meta_mean_motion_ddot": 0,
        "tle_line1": "1 34884U 93036ACX 25343.30319767  .00033038  00000+0  34298-2 0  9995",
        "tle_line2": "2 34884  74.0170  63.6261 0002383 102.4899 320.2561 14.89793785877542"
      },
      "geometry": {
        "type": "Point",
        "coordinates": [
          49.83624831084491,
          -38.45342439633213
        ]
      }
    },
    {
      "type": "Feature",
      "properties": {
        "norad_id": 34885,
        "name": "COSMOS 2251 DEB",
        "group": "cosmos-2251-debris",
        "lat": -72.45274860576154,
        "lon": 123.99387341753746,
        "alt_km": 716.9368506782312,
        "timestamp": "2025-12-09T14:52:26.557887+00:00",
        "meta_object_name": "COSMOS 2251 DEB",
        "meta_object_id": "1993-036ACY",
        "meta_epoch": "2025-12-09T07:47:52.072800",
        "meta_mean_motion": 14.51475671,
        "meta_eccentricity": 0.00152855,
        "meta_inclination": 74.0308,
        "meta_ra_of_asc_node": 189.4511,
        "meta_arg_of_pericenter": 275.1109,
        "meta_mean_anomaly": 262.2211,
        "meta_ephemeris_type": 0,
        "meta_classification_type": "U",
        "meta_norad_cat_id": 34885,
        "meta_element_set_no": 999,
        "meta_rev_at_epoch": 87429,
        "meta_bstar": 0.00097667104,
        "meta_mean_motion_dot": 3.882e-05,
        "meta_mean_motion_ddot": 0,
        "tle_line1": "1 34885U 93036ACY 25343.32490825  .00003882  00000+0  97667-3 0  9997",
        "tle_line2": "2 34885  74.0308 189.4511 0015285 275.1109 262.2211 14.51475671874294"
      },
      "geometry": {
        "type": "Point",
        "coordinates": [
          123.99387341753746,
          -72.45274860576154
        ]
      }
    }
  ]
}